GLOBALSTAR M075         
1 37192U 10054E   24269.30260904 -.00000079  00000+0  13941-3 0  9996
2 37192  51.9930 268.0552 0000411  71.6638  31.2275 12.62265043642559
GLOBALSTAR M073         
1 37193U 10054F   24269.47623884 -.00000083  00000+0  11529-3 0  9990
2 37193  52.0052 181.1418 0000736  77.1446  95.1386 12.62270004644402
GLOBALSTAR M083         
1 37739U 11033A   24269.33065866 -.00000096  00000+0  44799-4 0  9999
2 37739  51.9840 130.6776 0000918  67.2874 103.9439 12.62265043613404
GLOBALSTAR M088         
1 37740U 11033B   24269.52109351 -.00000104  00000+0 -16045-5 0  9995
2 37740  51.9753  35.8074 0000808  89.6804 348.3837 12.62267712608973
GLOBALSTAR M091         
1 37741U 11033C   24269.52059182 -.00000082  00000+0  12101-3 0  9993
2 37741  52.0024 358.8963 0000669  77.2467 296.4882 12.62267341609764
GLOBALSTAR M085         
1 37742U 11033D   24269.53654698 -.00000071  00000+0  18035-3 0  9998
2 37742  51.9873 310.1211 0000478  69.7218  77.8567 12.62266335610271
GLOBALSTAR M081         
1 37743U 11033E   24269.37490593 -.00000062  00000+0  23390-3 0  9993
2 37743  51.9967 313.2368 0000677  84.8524 287.8928 12.62269823610406
GLOBALSTAR M089         
1 37744U 11033F   24269.19208562 -.00000068  00000+0  19713-3 0  9997
2 37744  51.9915 268.0720 0000547 116.9830 322.9708 12.62269313611224
